{
  "type": "FeatureCollection",
  "features": [
    {
      "type": "Feature",
      "properties": {
        "norad_id": 34588,
        "name": "COSMOS 2251 DEB",
        "group": "cosmos-2251-debris",
        "lat": -60.33420683432273,
        "lon": -120.42757940133407,
        "alt_km": 746.4515675948405,
        "timestamp": "2025-12-11T22:43:47.665360+00:00",
        "meta_object_name": "COSMOS 2251 DEB",
        "meta_object_id": "1993-036WA",
        "meta_epoch": "2025-12-11T13:51:32.161248",
        "meta_mean_motion": 14.42016459,
        "meta_eccentricity": 0.00191631,
        "meta_inclination": 74.0437,
        "meta_ra_of_asc_node": 270.4089,
        "meta_arg_of_pericenter": 323.1831,
        "meta_mean_anomaly": 214.2712,
        "meta_ephemeris_type": 0,
        "meta_classification_type": "U",
        "meta_norad_cat_id": 34588,
        "meta_element_set_no": 999,
        "meta_rev_at_epoch": 87933,
        "meta_bstar": 0.00078967537,
        "meta_mean_motion_dot": 2.571e-05,
        "meta_mean_motion_ddot": 0,
        "tle_line1": "1 34588U 93036WA  25345.57745557  .00002571  00000+0  78968-3 0  9998",
        "tle_line2": "2 34588  74.0437 270.4089 0019163 323.1831 214.2712 14.42016459879331"
      },
      "geometry": {
        "type": "Point",
        "coordinates": [
          -120.42757940133407,
          -60.33420683432273
        ]
      }
    },
    {
      "type": "Feature",
      "properties": {
        "norad_id": 34589,
        "name": "COSMOS 2251 DEB",
        "group": "cosmos-2251-debris",
        "lat": -59.880554208284444,
        "lon": 27.5827251937386,
        "alt_km": 867.5796262241938,
        "timestamp": "2025-12-11T22:43:47.665371+00:00",
        "meta_object_name": "COSMOS 2251 DEB",
        "meta_object_id": "1993-036WB",
        "meta_epoch": "2025-12-11T10:58:28.736256",
        "meta_mean_motion": 13.86050666,
        "meta_eccentricity": 0.02518691,
        "meta_inclination": 73.9261,
        "meta_ra_of_asc_node": 58.2179,
        "meta_arg_of_pericenter": 1.804,
        "meta_mean_anomaly": 13.5809,
        "meta_ephemeris_type": 0,
        "meta_classification_type": "U",
        "meta_norad_cat_id": 34589,
        "meta_element_set_no": 999,
        "meta_rev_at_epoch": 84694,
        "meta_bstar": 0.0003647707,
        "meta_mean_motion_dot": 5.14e-06,
        "meta_mean_motion_ddot": 0,
        "tle_line1": "1 34589U 93036WB  25345.45727704  .00000514  00000+0  36477-3 0  9994",
        "tle_line2": "2 34589  73.9261  58.2179 0251869   1.8040  13.5809 13.86050666846943"
      },
      "geometry": {
        "type": "Point",
        "coordinates": [
          27.5827251937386,
          -59.880554208284444
        ]
      }
    },
    {
      "type": "Feature",
      "properties": {
        "norad_id": 34590,
        "name": "COSMOS 2251 DEB",
        "group": "cosmos-2251-debris",
        "lat": 73.73572252595952,
        "lon": 42.77046903261164,
        "alt_km": 654.7148530445602,
        "timestamp": "2025-12-11T22:43:47.665381+00:00",
        "meta_object_name": "COSMOS 2251 DEB",
        "meta_object_id": "1993-036WC",
        "meta_epoch": "2025-12-11T09:49:12.346752",
        "meta_mean_motion": 14.54823804,
        "meta_eccentricity": 0.0067951,
        "meta_inclination": 74.0437,
        "meta_ra_of_asc_node": 325.0675,
        "meta_arg_of_pericenter": 95.0699,
        "meta_mean_anomaly": 55.8182,
        "meta_ephemeris_type": 0,
        "meta_classification_type": "U",
        "meta_norad_cat_id": 34590,
        "meta_element_set_no": 999,
        "meta_rev_at_epoch": 89101,
        "meta_bstar": 0.00021997527,
        "meta_mean_motion_dot": 9.44e-06,
        "meta_mean_motion_ddot": 0,
        "tle_line1": "1 34590U 93036WC  25345.40917068  .00000944  00000+0  21998-3 0  9994",
        "tle_line2": "2 34590  74.0437 325.0675 0067951  95.0699  55.8182 14.54823804891019"
      },
      "geometry": {
        "type": "Point",
        "coordinates": [
          42.77046903261164,
          73.73572252595952
        ]
      }
    },
    {
      "type": "Feature",
      "properties": {
        "norad_id": 34609,
        "name": "COSMOS 2251 DEB",
        "group": "cosmos-2251-debris",
        "lat": -47.50695189327492,
        "lon": 89.5854015923757,
        "alt_km": 726.2741758683906,
        "timestamp": "2025-12-11T22:43:47.665391+00:00",
        "meta_object_name": "COSMOS 2251 DEB",
        "meta_object_id": "1993-036WE",
        "meta_epoch": "2025-12-11T14:35:06.209664",
        "meta_mean_motion": 14.21786633,
        "meta_eccentricity": 0.01450049,
        "meta_inclination": 73.733,
        "meta_ra_of_asc_node": 108.7909,
        "meta_arg_of_pericenter": 328.464,
        "meta_mean_anomaly": 45.5699,
        "meta_ephemeris_type": 0,
        "meta_classification_type": "U",
        "meta_norad_cat_id": 34609,
        "meta_element_set_no": 999,
        "meta_rev_at_epoch": 86616,
        "meta_bstar": 0.0012909722,
        "meta_mean_motion_dot": 3.134e-05,
        "meta_mean_motion_ddot": 0,
        "tle_line1": "1 34609U 93036WE  25345.60771076  .00003134  00000+0  12910-2 0  9991",
        "tle_line2": "2 34609  73.7330 108.7909 0145004 328.4640  45.5699 14.21786633866168"
      },
      "geometry": {
        "type": "Point",
        "coordinates": [
          89.5854015923757,
          -47.50695189327492
        ]
      }
    },
    {
      "type": "Feature",
      "properties": {
        "norad_id": 34610,
        "name": "COSMOS 2251 DEB",
        "group": "cosmos-2251-debris",
        "lat": 19.379331758577283,
        "lon": 77.9247566251716,
        "alt_km": 943.0147412280257,
        "timestamp": "2025-12-11T22:43:47.665401+00:00",
        "meta_object_name": "COSMOS 2251 DEB",
        "meta_object_id": "1993-036WF",
        "meta_epoch": "2025-12-11T04:55:24.511584",
        "meta_mean_motion": 14.07038658,
        "meta_eccentricity": 0.01802981,
        "meta_inclination": 74.0188,
        "meta_ra_of_asc_node": 265.0106,
        "meta_arg_of_pericenter": 35.9642,
        "meta_mean_anomaly": 325.3471,
        "meta_ephemeris_type": 0,
        "meta_classification_type": "U",
        "meta_norad_cat_id": 34610,
        "meta_element_set_no": 999,
        "meta_rev_at_epoch": 85538,
        "meta_bstar": 0.0029786906,
        "meta_mean_motion_dot": 5.749e-05,
        "meta_mean_motion_ddot": 0,
        "tle_line1": "1 34610U 93036WF  25345.20514481  .00005749  00000+0  29787-2 0  9998",
        "tle_line2": "2 34610  74.0188 265.0106 0180298  35.9642 325.3471 14.07038658855387"
      },
      "geometry": {
        "type": "Point",
        "coordinates": [
          77.9247566251716,
          19.379331758577283
        ]
      }
    },
    {
      "type": "Feature",
      "properties": {
        "norad_id": 34611,
        "name": "COSMOS 2251 DEB",
        "group": "cosmos-2251-debris",
        "lat": 32.90472994030706,
        "lon": 113.16196314923548,
        "alt_km": 665.8237229012038,
        "timestamp": "2025-12-11T22:43:47.665411+00:00",
        "meta_object_name": "COSMOS 2251 DEB",
        "meta_object_id": "1993-036WG",
        "meta_epoch": "2025-12-11T14:28:22.187712",
        "meta_mean_motion": 14.69473176,
        "meta_eccentricity": 0.00227654,
        "meta_inclination": 74.0529,
        "meta_ra_of_asc_node": 103.1655,
        "meta_arg_of_pericenter": 145.2154,
        "meta_mean_anomaly": 230.24,
        "meta_ephemeris_type": 0,
        "meta_classification_type": "U",
        "meta_norad_cat_id": 34611,
        "meta_element_set_no": 999,
        "meta_rev_at_epoch": 88374,
        "meta_bstar": 0.0027814356,
        "meta_mean_motion_dot": 0.00016558,
        "meta_mean_motion_ddot": 0,
        "tle_line1": "1 34611U 93036WG  25345.60303458  .00016558  00000+0  27814-2 0  9992",
        "tle_line2": "2 34611  74.0529 103.1655 0022765 145.2154 230.2400 14.69473176883748"
      },
      "geometry": {
        "type": "Point",
        "coordinates": [
          113.16196314923548,
          32.90472994030706
        ]
      }
    },
    {
      "type": "Feature",
      "properties": {
        "norad_id": 34613,
        "name": "COSMOS 2251 DEB",
        "group": "cosmos-2251-debris",
        "lat": -60.91695121875863,
        "lon": 131.1315605682722,
        "alt_km": 864.3344867460128,
        "timestamp": "2025-12-11T22:43:47.665422+00:00",
        "meta_object_name": "COSMOS 2251 DEB",
        "meta_object_id": "1993-036WJ",
        "meta_epoch": "2025-12-11T14:00:56.690208",
        "meta_mean_motion": 14.26422253,
        "meta_eccentricity": 0.01101476,
        "meta_inclination": 73.9634,
        "meta_ra_of_asc_node": 280.6518,
        "meta_arg_of_pericenter": 112.7648,
        "meta_mean_anomaly": 67.9016,
        "meta_ephemeris_type": 0,
        "meta_classification_type": "U",
        "meta_norad_cat_id": 34613,
        "meta_element_set_no": 999,
        "meta_rev_at_epoch": 86446,
        "meta_bstar": 0.0018464275,
        "meta_mean_motion_dot": 4.714e-05,
        "meta_mean_motion_ddot": 0,
        "tle_line1": "1 34613U 93036WJ  25345.58398947  .00004714  00000+0  18464-2 0  9990",
        "tle_line2": "2 34613  73.9634 280.6518 0110147 112.7648  67.9016 14.26422253864462"
      },
      "geometry": {
        "type": "Point",
        "coordinates": [
          131.1315605682722,
          -60.91695121875863
        ]
      }
    }
  ]
}